[{"OBJECT_NAME":"CHUTIAN-2 B","OBJECT_ID":"2025-256B","EPOCH":"2026-03-09T20:41:11.762016","MEAN_MOTION":14.50086658,"ECCENTRICITY":0.00126455,"INCLINATION":98.2627,"RA_OF_ASC_NODE":137.0927,"ARG_OF_PERICENTER":279.5668,"MEAN_ANOMALY":80.4098,"EPHEMERIS_TYPE":0,"CLASSIFICATION_TYPE":"U","NORAD_CAT_ID":66410,"ELEMENT_SET_NO":999,"REV_AT_EPOCH":1750,"BSTAR":0.00019761492,"MEAN_MOTION_DOT":7.23e-6,"MEAN_MOTION_DDOT":0},{"OBJECT_NAME":"IRIDIUM 33 DEB","OBJECT_ID":"1997-051ES","EPOCH":"2026-03-09T18:02:43.493856","MEAN_MOTION":14.45692761,"ECCENTRICITY":0.00196629,"INCLINATION":86.33,"RA_OF_ASC_NODE":325.066,"ARG_OF_PERICENTER":205.7877,"MEAN_ANOMALY":213.0575,"EPHEMERIS_TYPE":0,"CLASSIFICATION_TYPE":"U","NORAD_CAT_ID":34350,"ELEMENT_SET_NO":999,"REV_AT_EPOCH":89550,"BSTAR":0.00039253635,"MEAN_MOTION_DOT":1.412e-5,"MEAN_MOTION_DDOT":0}]
